[{"OBJECT_NAME":"KUIPER-00172","OBJECT_ID":"2025-217Z","EPOCH":"2026-03-09T22:00:01.999584","MEAN_MOTION":14.79971326,"ECCENTRICITY":8.187e-5,"INCLINATION":51.8996,"RA_OF_ASC_NODE":17.7852,"ARG_OF_PERICENTER":353.3149,"MEAN_ANOMALY":271.5912,"EPHEMERIS_TYPE":0,"CLASSIFICATION_TYPE":"U","NORAD_CAT_ID":65785,"ELEMENT_SET_NO":999,"REV_AT_EPOCH":375,"BSTAR":-0.0031208679,"MEAN_MOTION_DOT":-0.0002395,"MEAN_MOTION_DDOT":0},{"OBJECT_NAME":"DELTA 1 DEB","OBJECT_ID":"1972-058CB","EPOCH":"2026-03-09T23:16:46.065504","MEAN_MOTION":14.25260317,"ECCENTRICITY":0.02849382,"INCLINATION":98.9837,"RA_OF_ASC_NODE":98.3252,"ARG_OF_PERICENTER":85.0747,"MEAN_ANOMALY":278.2895,"EPHEMERIS_TYPE":0,"CLASSIFICATION_TYPE":"U","NORAD_CAT_ID":7933,"ELEMENT_SET_NO":999,"REV_AT_EPOCH":58195,"BSTAR":0.00063719937,"MEAN_MOTION_DOT":2.242e-5,"MEAN_MOTION_DDOT":0}]
